STARLINK-36612          
1 67580U 26016V   26050.88255177  .00332620  00000+0  16629-2 0  9998
2 67580  97.2829 110.5420 0001572 120.5363 239.6061 15.80934206  4002
STARLINK-36632          
1 67581U 26016W   26050.64886010  .00235509  00000+0  15340-2 0  9996
2 67581  97.2839 110.2488 0002978  43.1889 316.9609 15.75228137  3963
STARLINK-36609          
1 67582U 26016X   26050.72825905  .00303409  00000+0  19609-2 0  9999
2 67582  97.2839 110.2926 0000965 136.8573 223.2768 15.75222248  3979
STARLINK-36577          
1 67583U 26016Y   26050.75447702  .00395908  00000+0  19707-2 0  9992
2 67583  97.2830 110.4098 0001918 134.2802 225.8624 15.80867169  3982
STARLINK-36419          
1 67584U 26016Z   26050.91670139 -.00074470  00000+0 -50244-3 0  9995
2 67584  97.2848 110.5703 0001068  75.8903  92.0955 15.75205420  5190
STARLINK-36560          
1 67585U 26016AA  26050.74875843  .00420703  00000+0  20884-2 0  9994
2 67585  97.2825 110.4188 0001857 155.5025 204.6332 15.80863334  3984
NAVSTAR 85 (USA 581)    
1 67588U 26017A   26048.53936881  .00000028  00000+0  00000+0 0  9991
2 67588  55.0081  93.5564 0000946  45.2724 314.8210  2.00561228429213
STARLINK-36641          
1 67589U 26018A   26051.15046391  .00061200  00000+0  40798-3 0  9994
2 67589  97.2833 116.0449 0000760  58.6771 301.4569 15.75205542  4548
STARLINK-36376          
1 67590U 26018B   26051.16670139 -.00062263  00000+0 -41967-3 0  9991
2 67590  97.2838 116.1067 0001406  86.6232 107.5475 15.75186559  4573
STARLINK-36391          
1 67591U 26018C   26051.12320012  .00171910  00000+0  87637-3 0  9992
2 67591  97.2831 116.0820 0001500 124.8793 235.2616 15.80922744  4548
STARLINK-36603          
1 67592U 26018D   26051.16670139 -.00009932  00000+0 -65799-4 0  9997
2 67592  97.2837 116.1176 0001340  87.8357 130.3019 15.75188759  4531
STARLINK-36634          
1 67593U 26018E   26051.12154787 -.00556328  00000+0 -32647-2 0  9990
2 67593  97.2833 116.0843 0002316 147.9173 212.2236 15.79624226  4546
